ESTCUBE 1               
1 39161U 13021C   22268.20959056  .00000974  00000+0  15871-3 0  9997
2 39161  97.9023 342.8298 0010836  99.7682 260.4766 14.73113032504158
FENGYUN 3C              
1 39260U 13052A   22268.26072637  .00000057  00000+0  49618-4 0  9997
2 39260  98.4498 291.2994 0011002 353.2398   6.8632 14.15944079466046
CASSIOPE                
1 39265U 13055A   22268.46755187  .00019931  00000+0  52266-3 0  9998
2 39265  80.9662 161.1714 0615075  21.4967 341.0877 14.40673425466723
ZACUBE-1 (TSHEPISOSAT)  
1 39417U 13066B   22268.46367051  .00002054  00000+0  25372-3 0  9994
2 39417  97.6479 235.5170 0059101  77.0036 283.7768 14.82630702477945
CINEMA-3 (KHUSAT-2)     
1 39426U 13066L   22268.53144630  .00001011  00000+0  16279-3 0  9996
2 39426  97.8032 204.1413 0101435 275.4225  83.5417 14.70333369474249
TRITON-1                
1 39427U 13066M   22268.39027720  .00001897  00000+0  30168-3 0  9996
2 39427  97.8157 199.8612 0110242 305.8016  53.2983 14.69222876473453
DELFI-N3XT              
1 39428U 13066N   22268.35897754  .00003665  00000+0  56473-3 0  9997
2 39428  97.8159 198.4485 0115690 319.0978  40.1590 14.69591755473202
GOMX-1                  
1 39430U 13066Q   22268.42683247  .00001002  00000+0  18525-3 0  9997
2 39430  97.7996 169.8838 0150353  89.6058 272.2372 14.60371413470886
BRITE-PL1 (LEM)         
1 39431U 13066R   22268.47340889  .00000377  00000+0  90609-4 0  9993
2 39431  97.6908 113.2558 0199969 278.8441  79.0160 14.47418038466833
ICUBE-1                 
1 39432U 13066S   22268.49669287  .00002723  00000+0  26913-3 0  9995
2 39432  97.4725 267.1210 0029012 291.1793  68.6328 14.92401886479626
HUMSAT-D                
1 39433U 13066T   22268.50358695  .00004192  00000+0  38624-3 0  9990
2 39433  97.4516 274.8336 0027075 262.2471  97.5676 14.94942709480162
VELOX-PII               
1 39438U 13066Y   22268.42514790  .00001318  00000+0  17739-3 0  9997
2 39438  97.7031 226.8350 0070280 130.1362 230.6036 14.79123167475787
FIRST-MOVE              
1 39439U 13066Z   22268.43570138  .00004323  00000+0  49740-3 0  9993
2 39439  97.6477 238.1485 0063924  71.5916 289.2236 14.84778456476883
CUBEBUG-2 (LO-74)       
1 39440U 13066AA  22268.43919113  .00001302  00000+0  18145-3 0  9994
2 39440  97.7357 221.8553 0078607 165.9641 194.3780 14.77273697475041
NEE-02 KRYSAOR          
1 39441U 13066AB  22268.39397721  .00000920  00000+0  13429-3 0  9990
2 39441  97.7467 218.9369 0080178 180.4292 179.6863 14.75936174474777
FUNCUBE-1 (AO-73)       
1 39444U 13066AE  22268.47309131  .00002912  00000+0  34771-3 0  9996
2 39444  97.6353 237.9472 0057810  64.9687 295.7514 14.83774307476356
HINCUBE                 
1 39445U 13066AF  22268.47047395  .00002847  00000+0  34170-3 0  9998
2 39445  97.6368 237.7547 0057886  67.1798 293.5517 14.83574559476294
UWE-3                   
1 39446U 13066AG  22268.42351761  .00001594  00000+0  20978-3 0  9998
2 39446  97.6964 228.2358 0069633 122.5609 238.2354 14.79835316475247
AIST-1 (RS-41)          
1 39492U 13078C   22268.21222141  .00000775  00000+0  80275-4 0  9995
2 39492  82.4191 141.1737 0020522 132.1318 228.1651 14.88593502474621
SPROUT                  
1 39770U 14029E   22268.28313216  .00006440  00000+0  64107-3 0  9992
2 39770  97.9485  25.9528 0009537 115.0217 245.2019 14.91951900452544
UNISAT-6                
1 40012U 14033C   22268.51240431  .00001532  00000+0  22846-3 0  9993
2 40012  97.6636  91.1567 0056819 193.6544 166.3132 14.75118921444739
BUGSAT-1 (TITA)         
1 40014U 14033E   22268.53946332  .00001633  00000+0  14599-3 0  9998
2 40014  98.1471 271.0693 0031851  66.9227 293.5345 14.97034797451113
DUCHIFAT-1              
1 40021U 14033M   22268.32597886  .00004045  00000+0  39002-3 0  9995
2 40021  98.0206 220.4166 0013875  72.8313 287.4423 14.93418777449607
NANOSATC-BR1            
1 40024U 14033Q   22268.41088742  .00003678  00000+0  36638-3 0  9997
2 40024  97.9923 213.3326 0013552  79.0061 281.2681 14.92180020448887
QB50P1                  
1 40025U 14033R   22268.34027530  .00002414  00000+0  25047-3 0  9997
2 40025  97.9645 206.5604 0013747  88.1399 272.1393 14.90874749448642
DTUSAT-2                
1 40030U 14033W   22268.36384803  .00002928  00000+0  30680-3 0  9993
2 40030  97.9399 201.5637 0013283  85.2862 274.9872 14.90298912448524
QB50P2                  
1 40032U 14033Y   22268.40506454  .00002225  00000+0  23475-3 0  9992
2 40032  97.9400 201.6198 0013150  86.1289 274.1432 14.90273056448502
POLYITAN-1              
1 40042U 14033AJ  22268.48498222  .00002930  00000+0  30180-3 0  9998
2 40042  97.9756 208.0390 0015849  80.4139 279.8868 14.90974176448551
TIGRISAT                
1 40043U 14033AK  22268.48625315  .00001215  00000+0  18213-3 0  9992
2 40043  97.6574  92.3699 0058713 191.0699 168.9223 14.75179847444374
AISAT                   
1 40054U 14034B   22268.50722985  .00002756  00000+0  37062-3 0  9993
2 40054  98.3658  83.9966 0012246 359.9131   0.2075 14.80093934444277
CANX-4                  
1 40055U 14034C   22268.43293081  .00000747  00000+0  11758-3 0  9998
2 40055  98.3687  68.7244 0014882  43.7210 316.5174 14.75563931443460
CANX-5                  
1 40056U 14034D   22268.43974632  .00000750  00000+0  11803-3 0  9992
2 40056  98.3687  68.7109 0014895  43.7591 316.4795 14.75559987434270
VELOX-I                 
1 40057U 14034E   22268.21548011  .00001876  00000+0  25853-3 0  9997
2 40057  98.3709  84.8021 0010870  16.8843 343.2709 14.79462526444223
METEOR-M 2              
1 40069U 14037A   22268.47064315  .00000002  00000+0  19907-4 0  9995
2 40069  98.4313 281.7081 0006523  40.3940 319.7724 14.20718926426063
DX1                     
1 40071U 14037C   22268.26666970  .00000687  00000+0  93964-4 0  9994
2 40071  98.3934 141.8989 0008605   5.3849 354.7442 14.81994201444121
UKUBE-1                 
1 40074U 14037F   22268.44255333  .00001762  00000+0  20999-3 0  9996
2 40074  98.3676 154.2862 0003995 347.3365  12.7728 14.85705896444913
FIREBIRD 3              
1 40377U 15003B   22268.22924301  .00024107  00000+0  66467-3 0  9998
2 40377  99.0839 155.5375 0095515  47.1369 313.7840 15.32570069423684
FIREBIRD 4              
1 40378U 15003C   22268.44403530  .00023482  00000+0  64539-3 0  9992
2 40378  99.0844 156.0347 0095326  46.0070 314.8975 15.32689328423728
GRIFEX                  
1 40379U 15003D   22268.18556077  .00013235  00000+0  44635-3 0  9999
2 40379  99.0968 140.4829 0112832  92.2456 269.1701 15.24902951422810
CP10 (EXOCUBE)          
1 40380U 15003E   22268.52200616  .00008321  00000+0  31019-3 0  9996
2 40380  99.1077 133.1988 0121508 116.7638 244.6085 15.21054790422362
DEORBITSAIL             
1 40719U 15032E   22268.39933934  .00002455  00000+0  34020-3 0  9992
2 40719  97.7671 143.3599 0017082  43.5093 316.7462 14.78760304388655
NUDT-PHONESAT           
1 40900U 15049B   22268.57816353  .00029595  00000+0  72419-3 0  9995
2 40900  97.3969 287.3893 0006003 293.1468 186.9217 15.40721556390002
XW-2A                   
1 40903U 15049E   22268.57868465  .00025781  00000+0  35042-3 0  9993
2 40903  97.1687 327.4621 0010230 107.4842  30.2225 15.57520210394821
XW-2C                   
1 40906U 15049H   22268.57420453  .00005301  00000+0  24902-3 0  9996
2 40906  97.4970 271.2627 0014086  18.1129 137.5944 15.19959696388120
XW-2D                   
1 40907U 15049J   22268.54317189  .00006246  00000+0  28630-3 0  9996
2 40907  97.4964 271.3059 0013192  14.5247 100.8733 15.20744138388171
LILACSAT-2              
1 40908U 15049K   22268.55701955  .00002828  00000+0  14913-3 0  9997
2 40908  97.5213 268.2024 0016236  35.9557  80.4276 15.16287537387657
XW-2E                   
1 40909U 15049L   22268.58750074  .00009723  00000+0  39028-3 0  9992
2 40909  97.4666 276.1212 0011133 354.4115 133.1379 15.25126778388667
XW-2F                   
1 40910U 15049M   22268.28712995  .00009673  00000+0  39450-3 0  9994
2 40910  97.4748 274.9813 0012171 355.5180 128.4705 15.24581805388384
XW-2B                   
1 40911U 15049N   22268.58204127  .00006100  00000+0  28069-3 0  9997
2 40911  97.4944 271.9110 0013222  15.3113 133.1541 15.20619885388067
KAITUO 1B               
1 40912U 15049P   22268.53914119  .00010854  00000+0  40008-3 0  9990
2 40912  97.4373 279.5810 0010678 316.1556 164.5004 15.27935268389022
TIANWANG 1A (TW-1A)     
1 40928U 15051D   22268.57683110  .00065056  00000+0  56997-3 0  9996
2 40928  97.0326 290.8839 0006172  33.7344  87.4081 15.68657688393880
LAPAN-A2                
1 40931U 15052B   22267.85875440  .00000903  00000+0  36367-4 0  9990
2 40931   5.9955 179.9291 0012593 136.5795 223.5410 14.76864693378061
LQSAT                   
1 40958U 15057A   22268.23358841  .00000313  00000+0  55433-4 0  9998
2 40958  97.7413 309.9355 0018252   3.8137 356.3212 14.73434281374679
ATHENOXAT 1             
1 41168U 15077C   22268.10799720  .00015140  00000+0  58670-3 0  9994
2 41168  14.9800  70.5894 0008077 203.8963 302.1531 15.23225458375513
GALASSIA                
1 41170U 15077E   22267.07885933  .00013806  00000+0  55132-3 0  9991
2 41170  14.9881  70.0170 0009850 216.3764 143.5888 15.22054543375263
VELOX-II                
1 41171U 15077F   22268.30402941  .00010431  00000+0  47590-3 0  9993
2 41171  14.9910 139.6179 0007531  59.8739 300.2328 15.17029394374792
CHUBUSAT-2              
1 41338U 16012B   22268.24781609  .00002182  00000+0  15726-3 0  9992
2 41338  31.0023 108.3360 0013162  62.3066 297.8904 15.01682587362493
CHUBUSAT-3              
1 41339U 16012C   22267.97035045  .00001909  00000+0  13660-3 0  9999
2 41339  31.0110 107.0151 0013190  66.6391 293.5627 15.01735032362459
HORYU-4                 
1 41340U 16012D   22267.88574559  .00004452  00000+0  30928-3 0  9991
2 41340  31.0041  83.8723 0012869 109.7034 250.4992 15.03836749362709
